[{"OBJECT_NAME":"ODIN","OBJECT_ID":"2001-007A","EPOCH":"2026-03-09T15:54:19.144512","MEAN_MOTION":15.58615472,"ECCENTRICITY":0.00045789,"INCLINATION":97.4078,"RA_OF_ASC_NODE":104.7066,"ARG_OF_PERICENTER":141.3699,"MEAN_ANOMALY":218.7886,"EPHEMERIS_TYPE":0,"CLASSIFICATION_TYPE":"U","NORAD_CAT_ID":26702,"ELEMENT_SET_NO":999,"REV_AT_EPOCH":37383,"BSTAR":0.00055360612,"MEAN_MOTION_DOT":0.000425,"MEAN_MOTION_DDOT":0},{"OBJECT_NAME":"SITRO-AIS 42","OBJECT_ID":"2024-199X","EPOCH":"2026-03-09T22:21:47.562336","MEAN_MOTION":15.56144325,"ECCENTRICITY":0.0004269,"INCLINATION":97.3087,"RA_OF_ASC_NODE":305.2142,"ARG_OF_PERICENTER":282.8573,"MEAN_ANOMALY":77.2205,"EPHEMERIS_TYPE":0,"CLASSIFICATION_TYPE":"U","NORAD_CAT_ID":61756,"ELEMENT_SET_NO":999,"REV_AT_EPOCH":12230,"BSTAR":0.00091920276,"MEAN_MOTION_DOT":0.00064603,"MEAN_MOTION_DDOT":0}]
